OBJECT_NAME,OBJECT_ID,EPOCH,MEAN_MOTION,ECCENTRICITY,INCLINATION,RA_OF_ASC_NODE,ARG_OF_PERICENTER,MEAN_ANOMALY,EPHEMERIS_TYPE,CLASSIFICATION_TYPE,NORAD_CAT_ID,ELEMENT_SET_NO,REV_AT_EPOCH,BSTAR,MEAN_MOTION_DOT,MEAN_MOTION_DDOT
INTELSAT 902 (IS-902),2001-039A,2026-06-06T13:13:40.509984,1.00270875,.0004299,6.0917,71.9112,0.7285,330.6336,0,U,26900,999,9058,0,-.27E-5,0
INTELSAT 904 (IS-904),2002-007A,2026-06-06T15:02:01.861152,1.00270083,.0007136,6.8931,69.3106,0.5431,19.1983,0,U,27380,999,5166,0,-.213E-5,0
DIRECTV 5 (TEMPO 1),2002-023A,2026-06-06T13:52:31.873152,1.00271762,.0003459,4.8500,75.4421,8.5274,269.0564,0,U,27426,999,8801,0,-.44E-6,0
INTELSAT 905 (IS-905),2002-027A,2026-06-06T15:02:22.405344,1.00272837,.0004149,6.7264,69.9270,14.1476,259.3517,0,U,27438,999,5125,0,.106E-5,0
GALAXY 3C (G-3C),2002-030A,2026-06-06T11:26:55.685760,1.00271683,.0001904,3.7026,78.1187,30.9974,222.6611,0,U,27445,999,4638,0,-.139E-5,0
INTELSAT 906 (IS-906),2002-041A,2026-06-06T20:37:12.878112,1.00271022,.0004739,5.7777,73.0464,356.9075,198.7563,0,U,27513,999,8692,0,.26E-6,0
GALAXY 13 (HORIZONS-1),2003-044A,2026-06-06T17:53:35.691072,1.00272528,.0002081,1.3933,83.9836,345.9000,303.6550,0,U,27954,999,4646,0,.146E-5,0
INTELSAT 10-02,2004-022A,2026-06-06T18:36:00.895104,1.00272409,.0000466,0.0098,323.6079,203.3342,6.2447,0,U,28358,999,8045,0,.3E-7,0
DIRECTV 8,2005-019A,2026-06-06T14:37:04.251936,1.00269735,.0003017,0.0168,349.7812,90.9190,274.5411,0,U,28659,999,7696,0,0,0
GALAXY 28 (G-28),2005-022A,2026-06-06T20:11:20.105952,1.00270730,.0002774,3.2731,79.0560,355.9733,95.9444,0,U,28702,999,5187,0,-.187E-5,0
GALAXY 16 (G-16),2006-023A,2026-06-06T16:25:19.562016,1.00272148,.0002781,0.0214,202.0425,232.6902,327.7010,0,U,29236,999,7286,0,-.113E-5,0
DIRECTV 9S,2006-043A,2026-06-06T19:50:07.141056,1.00271768,.0005122,2.3933,81.0270,5.4636,5.0953,0,U,29494,999,5128,0,-.1E-5,0
GALAXY 17 (G-17),2007-016B,2026-06-06T19:54:29.223360,1.00272335,.0004908,2.9452,80.0314,13.7858,15.0570,0,U,31307,999,6970,0,-.193E-5,0
INTELSAT 11 (IS-11),2007-044B,2026-06-06T15:40:02.353728,0.99053769,.0001773,3.5373,78.7969,78.9029,144.4742,0,U,32253,999,6834,0,-.19E-5,0
HORIZONS-2,2007-063B,2026-06-06T19:57:58.886784,1.00272694,.0004092,2.5747,80.7529,353.9053,46.3121,0,U,32388,999,6771,0,-.24E-5,0
DIRECTV 11,2008-013A,2026-06-06T14:42:33.727104,1.00271783,.0000564,0.0319,184.3775,219.2224,332.8948,0,U,32729,999,4548,0,-.112E-5,0
GALAXY 18 (G-18),2008-024A,2026-06-06T18:01:12.461088,1.00272583,.0003223,0.0209,62.8204,22.8084,316.8325,0,U,32951,999,4574,0,.39E-6,0
INTELSAT 25 (IS-25),2008-034A,2026-06-06T19:24:09.628992,0.99021098,.0001908,2.6808,80.4536,28.1893,245.5398,0,U,33153,999,6558,0,-.212E-5,0
GALAXY 19 (G-19),2008-045A,2026-06-06T14:43:18.655104,1.00280536,.0003083,0.0147,61.0528,21.4185,296.4012,0,U,33376,999,6479,0,-.127E-5,0
FM-5,2009-034A,2026-06-06T19:54:29.223360,1.00271652,.0000596,0.0159,292.0098,27.6992,148.0024,0,U,35493,999,4654,0,-.186E-5,0
INTELSAT 14 (IS-14),2009-064A,2026-06-06T20:06:13.098240,1.00271718,.0002843,0.0150,327.8391,122.9732,61.0065,0,U,36097,999,6050,0,-.26E-5,0
INTELSAT 15 (IS-15),2009-067A,2026-06-06T20:43:18.799392,1.00271995,.0002377,0.0154,328.6529,109.6635,212.9420,0,U,36106,999,4112,0,-.171E-5,0
DIRECTV 12,2009-075A,2026-06-06T19:49:37.187904,1.00270892,.0000338,0.0438,141.1857,267.0309,41.7124,0,U,36131,999,4644,0,-.9E-6,0
INTELSAT 16 (IS-16),2010-006A,2026-06-06T19:57:13.957920,1.00271223,.0002211,0.0208,45.5909,43.7432,29.0365,0,U,36397,999,5955,0,-.231E-5,0
XM-5,2010-053A,2026-06-06T16:20:49.993152,1.00271909,.0002739,0.0655,272.9693,280.1245,192.0255,0,U,37185,999,5737,0,-.1E-6,0
INTELSAT 17 (IS-17),2010-065B,2026-06-06T20:27:43.585920,1.00272211,.0002434,0.0046,314.5284,127.1910,186.4686,0,U,37238,999,5314,0,.12E-6,0
INTELSAT 28 (IS-28),2011-016A,2026-06-06T20:09:57.739104,1.00269308,.000396,1.7787,82.7510,353.1717,90.1287,0,U,37392,999,5318,0,-.211E-5,0
INTELSAT 18 (IS-18),2011-056A,2026-06-06T19:27:39.295008,1.00272552,.0002228,0.0177,312.9106,136.6003,277.6298,0,U,37834,999,5370,0,.67E-6,0
INTELSAT 22 (IS-22),2012-011A,2026-06-06T18:56:50.977824,1.00273273,.0001603,0.0177,56.0899,8.8766,186.5421,0,U,38098,999,708,0,-.45E-6,0
INTELSAT 19 (IS-19),2012-030A,2026-06-06T19:23:39.676704,1.00271503,.000314,0.0154,8.0197,75.4723,268.6485,0,U,38356,999,5034,0,-.43E-6,0
INTELSAT 20 (IS-20),2012-043A,2026-06-06T19:58:18.209280,1.00278478,.00015,0.0129,90.6748,78.2228,94.4189,0,U,38740,999,5064,0,-.12E-6,0
