INTELSAT 902 (IS-902)   
1 26900U 01039A   26157.55116331 -.00000270  00000+0  00000+0 0  9994
2 26900   6.0917  71.9112 0004299   0.7285 330.6336  1.00270875 90585
INTELSAT 904 (IS-904)   
1 27380U 02007A   26157.62641043 -.00000213  00000+0  00000+0 0  9991
2 27380   6.8931  69.3106 0007136   0.5431  19.1983  1.00270083 51664
DIRECTV 5 (TEMPO 1)     
1 27426U 02023A   26157.57814668 -.00000044  00000+0  00000+0 0  9991
2 27426   4.8500  75.4421 0003459   8.5274 269.0564  1.00271762 88015
INTELSAT 905 (IS-905)   
1 27438U 02027A   26157.62664821  .00000106  00000+0  00000+0 0  9996
2 27438   6.7264  69.9270 0004149  14.1476 259.3517  1.00272837 51250
GALAXY 3C (G-3C)        
1 27445U 02030A   26157.47703340 -.00000139  00000+0  00000+0 0  9998
2 27445   3.7026  78.1187 0001904  30.9974 222.6611  1.00271683 46389
INTELSAT 906 (IS-906)   
1 27513U 02041A   26157.85917683  .00000026  00000+0  00000+0 0  9999
2 27513   5.7777  73.0464 0004739 356.9075 198.7563  1.00271022 86924
GALAXY 13 (HORIZONS-1)  
1 27954U 03044A   26157.74555198  .00000146  00000+0  00000+0 0  9992
2 27954   1.3933  83.9836 0002081 345.9000 303.6550  1.00272528 46466
INTELSAT 10-02          
1 28358U 04022A   26157.77501036  .00000003  00000+0  00000+0 0  9995
2 28358   0.0098 323.6079 0000466 203.3342   6.2447  1.00272409 80453
DIRECTV 8               
1 28659U 05019A   26157.60907699  .00000000  00000+0  00000+0 0  9990
2 28659   0.0168 349.7812 0003017  90.9190 274.5411  1.00269735 76965
GALAXY 28 (G-28)        
1 28702U 05022A   26157.84120493 -.00000187  00000+0  00000+0 0  9995
2 28702   3.2731  79.0560 0002774 355.9733  95.9444  1.00270730 51875
GALAXY 16 (G-16)        
1 29236U 06023A   26157.68425419 -.00000113  00000+0  00000+0 0  9997
2 29236   0.0214 202.0425 0002781 232.6902 327.7010  1.00272148 72866
DIRECTV 9S              
1 29494U 06043A   26157.82647154 -.00000100  00000+0  00000+0 0  9999
2 29494   2.3933  81.0270 0005122   5.4636   5.0953  1.00271768 51282
GALAXY 17 (G-17)        
1 31307U 07016B   26157.82950490 -.00000193  00000+0  00000+0 0  9998
2 31307   2.9452  80.0314 0004908  13.7858  15.0570  1.00272335 69700
INTELSAT 11 (IS-11)     
1 32253U 07044B   26157.65280502 -.00000190  00000+0  00000+0 0  9998
2 32253   3.5373  78.7969 0001773  78.9029 144.4742  0.99053769 68342
HORIZONS-2              
1 32388U 07063B   26157.83193156 -.00000240  00000+0  00000+0 0  9992
2 32388   2.5747  80.7529 0004092 353.9053  46.3121  1.00272694 67714
DIRECTV 11              
1 32729U 08013A   26157.61289036 -.00000112  00000+0  00000+0 0  9994
2 32729   0.0319 184.3775 0000564 219.2224 332.8948  1.00271783 45487
GALAXY 18 (G-18)        
1 32951U 08024A   26157.75083867  .00000039  00000+0  00000+0 0  9999
2 32951   0.0209  62.8204 0003223  22.8084 316.8325  1.00272583 45745
INTELSAT 25 (IS-25)     
1 33153U 08034A   26157.80844478 -.00000212  00000+0  00000+0 0  9998
2 33153   2.6808  80.4536 0001908  28.1893 245.5398  0.99021098 65584
GALAXY 19 (G-19)        
1 33376U 08045A   26157.61341036 -.00000127  00000+0  00000+0 0  9993
2 33376   0.0147  61.0528 0003083  21.4185 296.4012  1.00280536 64798
FM-5                    
1 35493U 09034A   26157.82950490 -.00000186  00000+0  00000+0 0  9992
2 35493   0.0159 292.0098 0000596  27.6992 148.0024  1.00271652 46548
INTELSAT 14 (IS-14)     
1 36097U 09064A   26157.83765160 -.00000260  00000+0  00000+0 0  9998
2 36097   0.0150 327.8391 0002843 122.9732  61.0065  1.00271718 60505
INTELSAT 15 (IS-15)     
1 36106U 09067A   26157.86341203 -.00000171  00000+0  00000+0 0  9994
2 36106   0.0154 328.6529 0002377 109.6635 212.9420  1.00271995 41124
DIRECTV 12              
1 36131U 09075A   26157.82612486 -.00000090  00000+0  00000+0 0  9991
2 36131   0.0438 141.1857 0000338 267.0309  41.7124  1.00270892 46445
INTELSAT 16 (IS-16)     
1 36397U 10006A   26157.83141155 -.00000231  00000+0  00000+0 0  9999
2 36397   0.0208  45.5909 0002211  43.7432  29.0365  1.00271223 59558
XM-5                    
1 37185U 10053A   26157.68113418 -.00000010  00000+0  00000+0 0  9996
2 37185   0.0655 272.9693 0002739 280.1245 192.0255  1.00271909 57378
INTELSAT 17 (IS-17)     
1 37238U 10065B   26157.85258780  .00000012  00000+0  00000+0 0  9990
2 37238   0.0046 314.5284 0002434 127.1910 186.4686  1.00272211 53144
INTELSAT 28 (IS-28)     
1 37392U 11016A   26157.84025161 -.00000211  00000+0  00000+0 0  9994
2 37392   1.7787  82.7510 0003960 353.1717  90.1287  1.00269308 53187
INTELSAT 18 (IS-18)     
1 37834U 11056A   26157.81087147  .00000067  00000+0  00000+0 0  9996
2 37834   0.0177 312.9106 0002228 136.6003 277.6298  1.00272552 53707
INTELSAT 22 (IS-22)     
1 38098U 12011A   26157.78947891 -.00000045  00000+0  00000+0 0  9995
2 38098   0.0177  56.0899 0001603   8.8766 186.5421  1.00273273  7084
INTELSAT 19 (IS-19)     
1 38356U 12030A   26157.80809811 -.00000043  00000+0  00000+0 0  9993
2 38356   0.0154   8.0197 0003140  75.4723 268.6485  1.00271503 50348
INTELSAT 20 (IS-20)     
1 38740U 12043A   26157.83215520 -.00000012  00000+0  00000+0 0  9991
2 38740   0.0129  90.6748 0001500  78.2228  94.4189  1.00278478 50642
